{"type": "FeatureCollection", "features": [ {"type": "Feature", "properties": {"norad_id": 34529, "name": "IRIDIUM 33 DEB", "group": "iridium-33-debris", "lat": 78.5431490104071, "lon": 51.990354927180206, "alt_km": 748.9051862094102, "timestamp": "2025-12-16T17:51:11.317394+00:00", "meta": {"OBJECT_NAME": "IRIDIUM 33 DEB", "OBJECT_ID": "1997-051HW", "EPOCH": "2025-12-15T13:08:52.059264", "MEAN_MOTION": 14.40617967, "ECCENTRICITY": 0.0005159, "INCLINATION": 86.364, "RA_OF_ASC_NODE": 34.2148, "ARG_OF_PERICENTER": 168.1879, "MEAN_ANOMALY": 191.9443, "EPHEMERIS_TYPE": 0, "CLASSIFICATION_TYPE": "U", "NORAD_CAT_ID": 34529, "ELEMENT_SET_NO": 999, "REV_AT_EPOCH": 88182, "BSTAR": 0.00011184947, "MEAN_MOTION_DOT": 3.76e-06, "MEAN_MOTION_DDOT": 0}, "tle": {"line1": "1 34529U 97051HW  25349.54782476  .00000376  00000+0  11185-3 0  9995", "line2": "2 34529  86.3640  34.2148 0005159 168.1879 191.9443 14.40617967881827"}}, "geometry": {"type": "Point", "coordinates": [51.990354927180206, 78.5431490104071]}}, {"type": "Feature", "properties": {"norad_id": 34538, "name": "IRIDIUM 33 DEB", "group": "iridium-33-debris", "lat": -54.24003459166836, "lon": -1.383870380528968, "alt_km": 733.824249876483, "timestamp": "2025-12-16T17:51:11.317405+00:00", "meta": {"OBJECT_NAME": "IRIDIUM 33 DEB", "OBJECT_ID": "1997-051JF", "EPOCH": "2025-12-15T02:29:33.974016", "MEAN_MOTION": 14.42663617, "ECCENTRICITY": 0.00326013, "INCLINATION": 86.2774, "RA_OF_ASC_NODE": 4.5209, "ARG_OF_PERICENTER": 319.9523, "MEAN_ANOMALY": 113.6008, "EPHEMERIS_TYPE": 0, "CLASSIFICATION_TYPE": "U", "NORAD_CAT_ID": 34538, "ELEMENT_SET_NO": 999, "REV_AT_EPOCH": 87790, "BSTAR": 0.00070844828, "MEAN_MOTION_DOT": 2.389e-05, "MEAN_MOTION_DDOT": 0}, "tle": {"line1": "1 34538U 97051JF  25349.10386544  .00002389  00000+0  70845-3 0  9997", "line2": "2 34538  86.2774   4.5209 0032601 319.9523 113.6008 14.42663617877903"}}, "geometry": {"type": "Point", "coordinates": [-1.383870380528968, -54.24003459166836]}}, {"type": "Feature", "properties": {"norad_id": 34540, "name": "IRIDIUM 33 DEB", "group": "iridium-33-debris", "lat": 65.15215819830483, "lon": 117.76468256241066, "alt_km": 627.388317442309, "timestamp": "2025-12-16T17:51:11.317416+00:00", "meta": {"OBJECT_NAME": "IRIDIUM 33 DEB", "OBJECT_ID": "1997-051JH", "EPOCH": "2025-12-15T20:18:20.359008", "MEAN_MOTION": 14.75390185, "ECCENTRICITY": 0.00169148, "INCLINATION": 86.3098, "RA_OF_ASC_NODE": 306.1865, "ARG_OF_PERICENTER": 148.3055, "MEAN_ANOMALY": 240.7997, "EPHEMERIS_TYPE": 0, "CLASSIFICATION_TYPE": "U", "NORAD_CAT_ID": 34540, "ELEMENT_SET_NO": 999, "REV_AT_EPOCH": 89067, "BSTAR": 0.0010372753, "MEAN_MOTION_DOT": 7.08e-05, "MEAN_MOTION_DDOT": 0}, "tle": {"line1": "1 34540U 97051JH  25349.84606897  .00007080  00000+0  10373-2 0  9999", "line2": "2 34540  86.3098 306.1865 0016914 148.3055 240.7997 14.75390185890679"}}, "geometry": {"type": "Point", "coordinates": [117.76468256241066, 65.15215819830483]}}, {"type": "Feature", "properties": {"norad_id": 34648, "name": "IRIDIUM 33 DEB", "group": "iridium-33-debris", "lat": 64.20622680605702, "lon": -72.16345788032508, "alt_km": 944.5158462052505, "timestamp": "2025-12-16T17:51:11.317426+00:00", "meta": {"OBJECT_NAME": "IRIDIUM 33 DEB", "OBJECT_ID": "1997-051JZ", "EPOCH": "2025-12-15T19:25:48.558720", "MEAN_MOTION": 14.11597133, "ECCENTRICITY": 0.01818536, "INCLINATION": 86.3893, "RA_OF_ASC_NODE": 280.7066, "ARG_OF_PERICENTER": 289.305, "MEAN_ANOMALY": 68.8545, "EPHEMERIS_TYPE": 0, "CLASSIFICATION_TYPE": "U", "NORAD_CAT_ID": 34648, "ELEMENT_SET_NO": 999, "REV_AT_EPOCH": 85004, "BSTAR": 0.0045448615, "MEAN_MOTION_DOT": 9.665e-05, "MEAN_MOTION_DDOT": 0}, "tle": {"line1": "1 34648U 97051JZ  25349.80958980  .00009665  00000+0  45449-2 0  9990", "line2": "2 34648  86.3893 280.7066 0181853 289.3050  68.8545 14.11597133850044"}}, "geometry": {"type": "Point", "coordinates": [-72.16345788032508, 64.20622680605702]}}, {"type": "Feature", "properties": {"norad_id": 34651, "name": "IRIDIUM 33 DEB", "group": "iridium-33-debris", "lat": -32.463108988029376, "lon": 136.5034284369241, "alt_km": 884.9246116476197, "timestamp": "2025-12-16T17:51:11.317437+00:00", "meta": {"OBJECT_NAME": "IRIDIUM 33 DEB", "OBJECT_ID": "1997-051KC", "EPOCH": "2025-12-15T16:44:43.264608", "MEAN_MOTION": 14.2586969, "ECCENTRICITY": 0.01422111, "INCLINATION": 86.2826, "RA_OF_ASC_NODE": 139.319, "ARG_OF_PERICENTER": 194.5813, "MEAN_ANOMALY": 165.1258, "EPHEMERIS_TYPE": 0, "CLASSIFICATION_TYPE": "U", "NORAD_CAT_ID": 34651, "ELEMENT_SET_NO": 999, "REV_AT_EPOCH": 85938, "BSTAR": 0.0022485877, "MEAN_MOTION_DOT": 5.97e-05, "MEAN_MOTION_DDOT": 0}, "tle": {"line1": "1 34651U 97051KC  25349.69772297  .00005970  00000+0  22486-2 0  9997", "line2": "2 34651  86.2826 139.3190 0142211 194.5813 165.1258 14.25869690859382"}}, "geometry": {"type": "Point", "coordinates": [136.5034284369241, -32.463108988029376]}}, {"type": "Feature", "properties": {"norad_id": 34652, "name": "IRIDIUM 33 DEB", "group": "iridium-33-debris", "lat": 1.2225228880143912, "lon": 158.14066343813732, "alt_km": 694.0367532619193, "timestamp": "2025-12-16T17:51:11.317447+00:00", "meta": {"OBJECT_NAME": "IRIDIUM 33 DEB", "OBJECT_ID": "1997-051KD", "EPOCH": "2025-12-15T23:06:17.407008", "MEAN_MOTION": 14.62091259, "ECCENTRICITY": 0.00256988, "INCLINATION": 86.3313, "RA_OF_ASC_NODE": 338.5668, "ARG_OF_PERICENTER": 286.4484, "MEAN_ANOMALY": 103.3861, "EPHEMERIS_TYPE": 0, "CLASSIFICATION_TYPE": "U", "NORAD_CAT_ID": 34652, "ELEMENT_SET_NO": 999, "REV_AT_EPOCH": 88531, "BSTAR": 0.00069351395, "MEAN_MOTION_DOT": 3.52e-05, "MEAN_MOTION_DDOT": 0}, "tle": {"line1": "1 34652U 97051KD  25349.96270147  .00003520  00000+0  69351-3 0  9997", "line2": "2 34652  86.3313 338.5668 0025698 286.4484 103.3861 14.62091259885317"}}, "geometry": {"type": "Point", "coordinates": [158.14066343813732, 1.2225228880143912]}}, {"type": "Feature", "properties": {"norad_id": 34690, "name": "IRIDIUM 33 DEB", "group": "iridium-33-debris", "lat": -58.619454831707, "lon": 29.291284494654068, "alt_km": 714.3179108694985, "timestamp": "2025-12-16T17:51:11.317458+00:00", "meta": {"OBJECT_NAME": "IRIDIUM 33 DEB", "OBJECT_ID": "1997-051KM", "EPOCH": "2025-12-15T21:29:19.372704", "MEAN_MOTION": 14.55108045, "ECCENTRICITY": 0.00104656, "INCLINATION": 86.3784, "RA_OF_ASC_NODE": 35.6202, "ARG_OF_PERICENTER": 19.3617, "MEAN_ANOMALY": 160.0071, "EPHEMERIS_TYPE": 0, "CLASSIFICATION_TYPE": "U", "NORAD_CAT_ID": 34690, "ELEMENT_SET_NO": 999, "REV_AT_EPOCH": 88140, "BSTAR": 0.0003293716, "MEAN_MOTION_DOT": 1.443e-05, "MEAN_MOTION_DDOT": 0}, "tle": {"line1": "1 34690U 97051KM  25349.89536311  .00001443  00000+0  32937-3 0  9991", "line2": "2 34690  86.3784  35.6202 0010465  19.3617 160.0071 14.55108045881400"}}, "geometry": {"type": "Point", "coordinates": [29.291284494654068, -58.619454831707]}}, {"type": "Feature", "properties": {"norad_id": 34693, "name": "IRIDIUM 33 DEB", "group": "iridium-33-debris", "lat": -34.78162815802439, "lon": -60.73949487837618, "alt_km": 483.8898787639864, "timestamp": "2025-12-16T17:51:11.317468+00:00", "meta": {"OBJECT_NAME": "IRIDIUM 33 DEB", "OBJECT_ID": "1997-051KQ", "EPOCH": "2025-12-15T21:49:54.444288", "MEAN_MOTION": 15.28720084, "ECCENTRICITY": 0.00128903, "INCLINATION": 86.3039, "RA_OF_ASC_NODE": 302.2489, "ARG_OF_PERICENTER": 47.6985, "MEAN_ANOMALY": 9.5457, "EPHEMERIS_TYPE": 0, "CLASSIFICATION_TYPE": "U", "NORAD_CAT_ID": 34693, "ELEMENT_SET_NO": 999, "REV_AT_EPOCH": 88963, "BSTAR": 0.0034812726, "MEAN_MOTION_DOT": 0.00098516, "MEAN_MOTION_DDOT": 0}, "tle": {"line1": "1 34693U 97051KQ  25349.90965792  .00098516  00000+0  34813-2 0  9996", "line2": "2 34693  86.3039 302.2489 0012890  47.6985   9.5457 15.28720084889634"}}, "geometry": {"type": "Point", "coordinates": [-60.73949487837618, -34.78162815802439]}}, {"type": "Feature", "properties": {"norad_id": 34696, "name": "IRIDIUM 33 DEB", "group": "iridium-33-debris", "lat": -46.236425581967104, "lon": -150.34543529175818, "alt_km": 666.8593824087893, "timestamp": "2025-12-16T17:51:11.317478+00:00", "meta": {"OBJECT_NAME": "IRIDIUM 33 DEB", "OBJECT_ID": "1997-051KT", "EPOCH": "2025-12-15T13:39:18.734112", "MEAN_MOTION": 14.65257205, "ECCENTRICITY": 0.00738903, "INCLINATION": 86.1854, "RA_OF_ASC_NODE": 26.2064, "ARG_OF_PERICENTER": 157.9484, "MEAN_ANOMALY": 353.8897, "EPHEMERIS_TYPE": 0, "CLASSIFICATION_TYPE": "U", "NORAD_CAT_ID": 34696, "ELEMENT_SET_NO": 999, "REV_AT_EPOCH": 86714, "BSTAR": 0.0025836599, "MEAN_MOTION_DOT": 0.00014532, "MEAN_MOTION_DDOT": 0}, "tle": {"line1": "1 34696U 97051KT  25349.56896683  .00014532  00000+0  25837-2 0  9995", "line2": "2 34696  86.1854  26.2064 0073890 157.9484 353.8897 14.65257205867143"}}, "geometry": {"type": "Point", "coordinates": [-150.34543529175818, -46.236425581967104]}}, {"type": "Feature", "properties": {"norad_id": 34765, "name": "IRIDIUM 33 DEB", "group": "iridium-33-debris", "lat": 60.45207498486289, "lon": -155.44109599625676, "alt_km": 748.9090833110504, "timestamp": "2025-12-16T17:51:11.317489+00:00", "meta": {"OBJECT_NAME": "IRIDIUM 33 DEB", "OBJECT_ID": "1997-051LJ", "EPOCH": "2025-12-15T13:40:10.093728", "MEAN_MOTION": 14.40472042, "ECCENTRICITY": 0.00157365, "INCLINATION": 86.3391, "RA_OF_ASC_NODE": 31.5475, "ARG_OF_PERICENTER": 201.7387, "MEAN_ANOMALY": 311.9184, "EPHEMERIS_TYPE": 0, "CLASSIFICATION_TYPE": "U", "NORAD_CAT_ID": 34765, "ELEMENT_SET_NO": 999, "REV_AT_EPOCH": 87654, "BSTAR": 0.00038671785, "MEAN_MOTION_DOT": 1.25e-05, "MEAN_MOTION_DDOT": 0}, "tle": {"line1": "1 34765U 97051LJ  25349.56956127  .00001250  00000+0  38672-3 0  9997", "line2": "2 34765  86.3391  31.5475 0015736 201.7387 311.9184 14.40472042876547"}}, "geometry": {"type": "Point", "coordinates": [-155.44109599625676, 60.45207498486289]}}]}